{"type":"FeatureCollection","metadata":{"timestamp":"2026-03-01T06:11:21.516Z","source":"Directorate of Fire Emergency Services, Govt. of Goa","count":51},"features":[{"type":"Feature","geometry":{"type":"Point","coordinates":[73.793905,15.5330367]},"properties":{"Vehicle_Name":"4G","Company":"Directorate of Fire Emergency Services","Temperature":"--","heartbeat":"no","GPS":"ON","mcc":"404","cellid":"NA","lac":"","Vehicle_No":"GA 07 G 0680-PIL(QUICK RESPONSE VEHICLE)","Door1":"--","elock":"--","Door4":"--","Branch":"Fire Station Pilerne","Vehicletype":"Truck","Door2":"--","Door3":"--","course":"","GPSActualTime":"01-03-2026 11:41:09","Datetime":"01-03-2026 11:41:16","Status":"STOP","DeviceModel":"L400","Speed":"0","AC":"--","mnc":"90","Imeino":"864180052940132","gps_hdop":"NA","Odometer":"11447","POI":"At Fire Station Pilerne","Driver_Middle_Name":"--","Immobilize_State":"--","IGN":"OFF","satellite_count":0,"Driver_First_Name":"--","Angle":"0","Ibutton/RFID":"","SOS":"--","Fuel":[],"Vin":"--","battery_percentage":"0","ExternalVolt":"--","Driver_Last_Name":"--","Power":"ON","username":"cnt-fire.goa@nic.in","Location":"At Fire Station Pilerne","Altitude":"0"}},{"type":"Feature","geometry":{"type":"Point","coordinates":[73.91407,15.500418]},"properties":{"Vehicle_Name":"TS101","Company":"Directorate of Fire Emergency Services","Temperature":"--","heartbeat":"no","GPS":"ON","mcc":"--","cellid":"NA","lac":"","Vehicle_No":"GA07G2506 - OLG Mid Size (Water Tender)","Door1":"--","elock":"--","Door4":"--","Branch":"Fire Station Old Goa","Vehicletype":"Truck","Door2":"--","Door3":"--","course":"","GPSActualTime":"01-03-2026 11:40:53","Datetime":"01-03-2026 11:40:56","Status":"STOP","DeviceModel":"TS101","Speed":"0","AC":"--","mnc":"--","Imeino":"220717923","gps_hdop":"NA","Odometer":"0","POI":"At Fire Station Old Goa","Driver_Middle_Name":"--","Immobilize_State":"--","IGN":"OFF","satellite_count":18,"Driver_First_Name":"--","Angle":"132","Ibutton/RFID":"","SOS":"--","Fuel":[],"Vin":"--","battery_percentage":"0","ExternalVolt":"12.64","Driver_Last_Name":"--","Power":"ON","username":"cnt-fire.goa@nic.in","Location":"At Fire Station Old Goa","Altitude":"0"}},{"type":"Feature","geometry":{"type":"Point","coordinates":[73.829437,15.52294]},"properties":{"Vehicle_Name":"TS101","Company":"Directorate of Fire Emergency Services","Temperature":"--","heartbeat":"no","GPS":"ON","mcc":"--","cellid":"NA","lac":"","Vehicle_No":"GA 07 G 5115-POR(MINI WATER TENDER)","Door1":"--","elock":"--","Door4":"--","Branch":"Fire Station Porvorim","Vehicletype":"Truck","Door2":"--","Door3":"--","course":"","GPSActualTime":"01-03-2026 11:39:24","Datetime":"01-03-2026 11:39:26","Status":"STOP","DeviceModel":"TS101","Speed":"0","AC":"--","mnc":"--","Imeino":"220718761","gps_hdop":"NA","Odometer":"0","POI":"At Porvorim Fire Station","Driver_Middle_Name":"--","Immobilize_State":"--","IGN":"OFF","satellite_count":0,"Driver_First_Name":"--","Angle":"98","Ibutton/RFID":"","SOS":"--","Fuel":[],"Vin":"--","battery_percentage":"0","ExternalVolt":"12.59","Driver_Last_Name":"--","Power":"ON","username":"cnt-fire.goa@nic.in","Location":"At Porvorim Fire Station","Altitude":"0"}},{"type":"Feature","geometry":{"type":"Point","coordinates":[73.970451,15.269468]},"properties":{"Vehicle_Name":"TS101","Company":"Directorate of Fire Emergency Services","Temperature":"--","heartbeat":"no","GPS":"ON","mcc":"--","cellid":"NA","lac":"","Vehicle_No":"GA 07 G 0350-MRG(WATER TENDER)","Door1":"--","elock":"--","Door4":"--","Branch":"Fire Station Margao","Vehicletype":"Truck","Door2":"--","Door3":"--","course":"","GPSActualTime":"01-03-2026 11:39:40","Datetime":"01-03-2026 11:39:46","Status":"STOP","DeviceModel":"TS101","Speed":"0","AC":"--","mnc":"--","Imeino":"220718397","gps_hdop":"NA","Odometer":"0","POI":"At Fire Station Margoa","Driver_Middle_Name":"--","Immobilize_State":"--","IGN":"OFF","satellite_count":17,"Driver_First_Name":"--","Angle":"303","Ibutton/RFID":"","SOS":"--","Fuel":[],"Vin":"--","battery_percentage":"0","ExternalVolt":"25.04","Driver_Last_Name":"--","Power":"ON","username":"cnt-fire.goa@nic.in","Location":"At Fire Station Margoa","Altitude":"0"}},{"type":"Feature","geometry":{"type":"Point","coordinates":[73.808731,15.590012]},"properties":{"Vehicle_Name":"TS101","Company":"Directorate of Fire Emergency Services","Temperature":"--","heartbeat":"no","GPS":"ON","mcc":"--","cellid":"NA","lac":"","Vehicle_No":"GA 07 G 2900-MAP(MINI RESCUE TENDER)","Door1":"--","elock":"--","Door4":"--","Branch":"Fire Station Mapusa","Vehicletype":"Truck","Door2":"--","Door3":"--","course":"","GPSActualTime":"01-03-2026 11:39:54","Datetime":"01-03-2026 11:39:57","Status":"STOP","DeviceModel":"TS101","Speed":"0","AC":"--","mnc":"--","Imeino":"220717697","gps_hdop":"NA","Odometer":"0","POI":"At Fire Station Mapusa","Driver_Middle_Name":"--","Immobilize_State":"--","IGN":"OFF","satellite_count":16,"Driver_First_Name":"--","Angle":"7","Ibutton/RFID":"","SOS":"--","Fuel":[],"Vin":"--","battery_percentage":"0","ExternalVolt":"12.54","Driver_Last_Name":"--","Power":"ON","username":"cnt-fire.goa@nic.in","Location":"At Fire Station Mapusa","Altitude":"0"}},{"type":"Feature","geometry":{"type":"Point","coordinates":[73.817307,15.487325]},"properties":{"Vehicle_Name":"TS101","Company":"Directorate of Fire Emergency Services","Temperature":"--","heartbeat":"no","GPS":"ON","mcc":"--","cellid":"NA","lac":"","Vehicle_No":"GA 07 G 7600-FFHQ(WATER BOUSER)","Door1":"--","elock":"--","Door4":"--","Branch":"Fire Force Headquarters","Vehicletype":"Truck","Door2":"--","Door3":"--","course":"","GPSActualTime":"01-03-2026 11:40:20","Datetime":"01-03-2026 11:40:23","Status":"STOP","DeviceModel":"TS101","Speed":"0","AC":"--","mnc":"--","Imeino":"220718077","gps_hdop":"NA","Odometer":"0","POI":"0.29 km from Fire Station panaji","Driver_Middle_Name":"--","Immobilize_State":"--","IGN":"OFF","satellite_count":14,"Driver_First_Name":"--","Angle":"358","Ibutton/RFID":"","SOS":"--","Fuel":[],"Vin":"--","battery_percentage":"0","ExternalVolt":"25.63","Driver_Last_Name":"--","Power":"ON","username":"cnt-fire.goa@nic.in","Location":"Caculo Mall, 16 Shanta, St Inez Rd, Caculo Enclave, Santa Inez, Panaji, Goa (NW)","Altitude":"0"}},{"type":"Feature","geometry":{"type":"Point","coordinates":[73.817184,15.487447]},"properties":{"Vehicle_Name":"TS101","Company":"Directorate of Fire Emergency Services","Temperature":"--","heartbeat":"no","GPS":"ON","mcc":"--","cellid":"NA","lac":"","Vehicle_No":"GA 07 G 2002-FFHQ(TURN TABLE LADDER)","Door1":"--","elock":"--","Door4":"--","Branch":"Fire Force Headquarters","Vehicletype":"Truck","Door2":"--","Door3":"--","course":"","GPSActualTime":"01-03-2026 11:39:47","Datetime":"01-03-2026 11:39:50","Status":"STOP","DeviceModel":"TS101","Speed":"0","AC":"--","mnc":"--","Imeino":"220718145","gps_hdop":"NA","Odometer":"0","POI":"0.3 km from Fire Station panaji","Driver_Middle_Name":"--","Immobilize_State":"--","IGN":"OFF","satellite_count":20,"Driver_First_Name":"--","Angle":"238","Ibutton/RFID":"","SOS":"--","Fuel":[],"Vin":"--","battery_percentage":"0","ExternalVolt":"25.75","Driver_Last_Name":"--","Power":"ON","username":"cnt-fire.goa@nic.in","Location":"Caculo Mall, 16 Shanta, St Inez Rd, Caculo Enclave, Santa Inez, Panaji, Goa (NW)","Altitude":"0"}},{"type":"Feature","geometry":{"type":"Point","coordinates":[73.816956,15.486888]},"properties":{"Vehicle_Name":"TS101","Company":"Directorate of Fire Emergency Services","Temperature":"--","heartbeat":"no","GPS":"ON","mcc":"--","cellid":"NA","lac":"","Vehicle_No":"GA 07 G 7101-FFHQ(WATER TENDER)","Door1":"--","elock":"--","Door4":"--","Branch":"Fire Force Headquarters","Vehicletype":"Truck","Door2":"--","Door3":"--","course":"","GPSActualTime":"01-03-2026 11:40:33","Datetime":"01-03-2026 11:40:43","Status":"STOP","DeviceModel":"TS101","Speed":"0","AC":"--","mnc":"--","Imeino":"220717600","gps_hdop":"NA","Odometer":"0","POI":"0.23 km from Fire Station panaji","Driver_Middle_Name":"--","Immobilize_State":"--","IGN":"OFF","satellite_count":19,"Driver_First_Name":"--","Angle":"6","Ibutton/RFID":"","SOS":"--","Fuel":[],"Vin":"--","battery_percentage":"0","ExternalVolt":"12.87","Driver_Last_Name":"--","Power":"ON","username":"cnt-fire.goa@nic.in","Location":"Caculo Mall, 16 Shanta, St Inez Rd, Caculo Enclave, Santa Inez, Panaji, Goa (NW)","Altitude":"0"}},{"type":"Feature","geometry":{"type":"Point","coordinates":[73.817047,15.487045]},"properties":{"Vehicle_Name":"TS101","Company":"Directorate of Fire Emergency Services","Temperature":"--","heartbeat":"no","GPS":"ON","mcc":"--","cellid":"NA","lac":"","Vehicle_No":"GA 07 G 7677-FFHQ(EMERGENCY RESCUE)","Door1":"--","elock":"--","Door4":"--","Branch":"Fire Force Headquarters","Vehicletype":"Truck","Door2":"--","Door3":"--","course":"","GPSActualTime":"01-03-2026 11:39:23","Datetime":"01-03-2026 11:39:27","Status":"STOP","DeviceModel":"TS101","Speed":"0","AC":"--","mnc":"--","Imeino":"220718713","gps_hdop":"NA","Odometer":"0","POI":"0.25 km from Fire Station panaji","Driver_Middle_Name":"--","Immobilize_State":"--","IGN":"OFF","satellite_count":15,"Driver_First_Name":"--","Angle":"299","Ibutton/RFID":"","SOS":"--","Fuel":[],"Vin":"--","battery_percentage":"0","ExternalVolt":"12.64","Driver_Last_Name":"--","Power":"ON","username":"cnt-fire.goa@nic.in","Location":"Caculo Mall, 16 Shanta, St Inez Rd, Caculo Enclave, Santa Inez, Panaji, Goa (NW)","Altitude":"0"}},{"type":"Feature","geometry":{"type":"Point","coordinates":[73.817314,15.48731]},"properties":{"Vehicle_Name":"TS101","Company":"Directorate of Fire Emergency Services","Temperature":"--","heartbeat":"no","GPS":"ON","mcc":"--","cellid":"NA","lac":"","Vehicle_No":"GA 07 G 1121-PNJ(EMERGENCY RESCUE)","Door1":"--","elock":"--","Door4":"--","Branch":"Fire Station Panaji","Vehicletype":"Truck","Door2":"--","Door3":"--","course":"","GPSActualTime":"01-03-2026 11:40:24","Datetime":"01-03-2026 11:40:28","Status":"STOP","DeviceModel":"TS101","Speed":"0","AC":"--","mnc":"--","Imeino":"220718788","gps_hdop":"NA","Odometer":"0","POI":"0.29 km from Fire Station panaji","Driver_Middle_Name":"--","Immobilize_State":"--","IGN":"OFF","satellite_count":16,"Driver_First_Name":"--","Angle":"264","Ibutton/RFID":"","SOS":"--","Fuel":[],"Vin":"--","battery_percentage":"0","ExternalVolt":"12.66","Driver_Last_Name":"--","Power":"ON","username":"cnt-fire.goa@nic.in","Location":"Caculo Mall, 16 Shanta, St Inez Rd, Caculo Enclave, Santa Inez, Panaji, Goa (NW)","Altitude":"0"}},{"type":"Feature","geometry":{"type":"Point","coordinates":[73.817551,15.486557]},"properties":{"Vehicle_Name":"TS101","Company":"Directorate of Fire Emergency Services","Temperature":"--","heartbeat":"no","GPS":"ON","mcc":"--","cellid":"NA","lac":"","Vehicle_No":"GA 07 G 1571-FFHQ(QUICK RESPONSE)","Door1":"--","elock":"--","Door4":"--","Branch":"Fire Force Headquarters","Vehicletype":"Truck","Door2":"--","Door3":"--","course":"","GPSActualTime":"01-03-2026 11:39:31","Datetime":"01-03-2026 11:39:34","Status":"STOP","DeviceModel":"TS101","Speed":"0","AC":"--","mnc":"--","Imeino":"220717577","gps_hdop":"NA","Odometer":"0","POI":"0.23 km from Fire Station panaji","Driver_Middle_Name":"--","Immobilize_State":"--","IGN":"OFF","satellite_count":12,"Driver_First_Name":"--","Angle":"10","Ibutton/RFID":"","SOS":"--","Fuel":[],"Vin":"MAT464535HSG07690","battery_percentage":"0","ExternalVolt":"12.15","Driver_Last_Name":"--","Power":"ON","username":"cnt-fire.goa@nic.in","Location":"Caculo Mall, 16 Shanta, St Inez Rd, Caculo Enclave, Santa Inez, Panaji, Goa (SW)","Altitude":"0"}},{"type":"Feature","geometry":{"type":"Point","coordinates":[73.808784,15.589873]},"properties":{"Vehicle_Name":"TS101","Company":"Directorate of Fire Emergency Services","Temperature":"--","heartbeat":"no","GPS":"ON","mcc":"--","cellid":"NA","lac":"","Vehicle_No":"GA 07 G 8101-MAP(WATER TENDER)","Door1":"--","elock":"--","Door4":"--","Branch":"Fire Station Mapusa","Vehicletype":"Truck","Door2":"--","Door3":"--","course":"","GPSActualTime":"01-03-2026 11:39:48","Datetime":"01-03-2026 11:39:55","Status":"STOP","DeviceModel":"TS101","Speed":"0","AC":"--","mnc":"--","Imeino":"220718796","gps_hdop":"NA","Odometer":"0","POI":"At Fire Station Mapusa","Driver_Middle_Name":"--","Immobilize_State":"--","IGN":"OFF","satellite_count":18,"Driver_First_Name":"--","Angle":"94","Ibutton/RFID":"","SOS":"--","Fuel":[],"Vin":"--","battery_percentage":"0","ExternalVolt":"12.87","Driver_Last_Name":"--","Power":"ON","username":"cnt-fire.goa@nic.in","Location":"At Fire Station Mapusa","Altitude":"0"}},{"type":"Feature","geometry":{"type":"Point","coordinates":[73.970085,15.26938]},"properties":{"Vehicle_Name":"5035","Company":"Directorate of Fire Emergency Services","Temperature":"--","heartbeat":"no","GPS":"ON","mcc":"404","cellid":"NA","lac":"","Vehicle_No":"GA 07 G 2317-MRG(EMERGENCY RESCUE TENDER)","Door1":"--","elock":"--","Door4":"--","Branch":"Fire Station Margao","Vehicletype":"Truck","Door2":"--","Door3":"--","course":"","GPSActualTime":"01-03-2026 11:40:30","Datetime":"01-03-2026 11:41:12","Status":"STOP","DeviceModel":"LC 100","Speed":"0","AC":"--","mnc":"90","Imeino":"863221045426044","gps_hdop":"NA","Odometer":"9513","POI":"At Fire Station Margoa","Driver_Middle_Name":"--","Immobilize_State":"--","IGN":"OFF","satellite_count":0,"Driver_First_Name":"--","Angle":"0","Ibutton/RFID":"","SOS":"--","Fuel":[],"Vin":"--","battery_percentage":"0","ExternalVolt":"--","Driver_Last_Name":"--","Power":"ON","username":"cnt-fire.goa@nic.in","Location":"At Fire Station Margoa","Altitude":"0"}},{"type":"Feature","geometry":{"type":"Point","coordinates":[73.850985,15.3890016]},"properties":{"Vehicle_Name":"5035","Company":"Directorate of Fire Emergency Services","Temperature":"--","heartbeat":"no","GPS":"ON","mcc":"404","cellid":"NA","lac":"","Vehicle_No":"GA 07 G 1570-VAS(QUICK RESPONSE FIRE TENDER)","Door1":"--","elock":"--","Door4":"--","Branch":"Fire Station Vasco","Vehicletype":"Truck","Door2":"--","Door3":"--","course":"","GPSActualTime":"01-03-2026 11:40:52","Datetime":"01-03-2026 11:41:06","Status":"STOP","DeviceModel":"LC 100","Speed":"0","AC":"--","mnc":"90","Imeino":"863221045426499","gps_hdop":"NA","Odometer":"23172","POI":"At Fire Station Vasco","Driver_Middle_Name":"--","Immobilize_State":"--","IGN":"OFF","satellite_count":0,"Driver_First_Name":"--","Angle":"0","Ibutton/RFID":"","SOS":"--","Fuel":[],"Vin":"--","battery_percentage":"0","ExternalVolt":"--","Driver_Last_Name":"--","Power":"ON","username":"cnt-fire.goa@nic.in","Location":"At Fire Station Vasco","Altitude":"0"}},{"type":"Feature","geometry":{"type":"Point","coordinates":[73.8128983,15.3840233]},"properties":{"Vehicle_Name":"5035","Company":"Directorate of Fire Emergency Services","Temperature":"--","heartbeat":"no","GPS":"ON","mcc":"404","cellid":"NA","lac":"","Vehicle_No":"GA 07 G 4101-VAS(MS WATER TENDER)","Door1":"--","elock":"--","Door4":"--","Branch":"Fire Station Vasco","Vehicletype":"Truck","Door2":"--","Door3":"--","course":"","GPSActualTime":"01-03-2026 11:41:05","Datetime":"01-03-2026 11:41:18","Status":"IDLE","DeviceModel":"LC 100","Speed":"0","AC":"--","mnc":"90","Imeino":"863221045311949","gps_hdop":"NA","Odometer":"11497","POI":"--","Driver_Middle_Name":"--","Immobilize_State":"--","IGN":"ON","satellite_count":0,"Driver_First_Name":"--","Angle":"264","Ibutton/RFID":"","SOS":"--","Fuel":[],"Vin":"--","battery_percentage":"0","ExternalVolt":"--","Driver_Last_Name":"--","Power":"ON","username":"cnt-fire.goa@nic.in","Location":"Gomanteshwar Devasthan Temple, Gandhinagar, Sasmolem, Mormugao, Goa (SW)","Altitude":"0"}},{"type":"Feature","geometry":{"type":"Point","coordinates":[73.8512783,15.388845]},"properties":{"Vehicle_Name":"4G","Company":"Directorate of Fire Emergency Services","Temperature":"--","heartbeat":"no","GPS":"ON","mcc":"404","cellid":"NA","lac":"","Vehicle_No":"GA 07 G 0819-VAS(WATER/FOAM TENDER)","Door1":"--","elock":"--","Door4":"--","Branch":"Fire Station Vasco","Vehicletype":"Truck","Door2":"--","Door3":"--","course":"","GPSActualTime":"01-03-2026 11:41:01","Datetime":"01-03-2026 11:41:05","Status":"IDLE","DeviceModel":"L400","Speed":"0","AC":"--","mnc":"90","Imeino":"864180052940207","gps_hdop":"NA","Odometer":"6061","POI":"At Fire Station Vasco","Driver_Middle_Name":"--","Immobilize_State":"--","IGN":"ON","satellite_count":0,"Driver_First_Name":"--","Angle":"0","Ibutton/RFID":"","SOS":"--","Fuel":[],"Vin":"--","battery_percentage":"0","ExternalVolt":"--","Driver_Last_Name":"--","Power":"ON","username":"cnt-fire.goa@nic.in","Location":"At Fire Station Vasco","Altitude":"0"}},{"type":"Feature","geometry":{"type":"Point","coordinates":[73.970085,15.2693283]},"properties":{"Vehicle_Name":"5035","Company":"Directorate of Fire Emergency Services","Temperature":"--","heartbeat":"no","GPS":"ON","mcc":"404","cellid":"NA","lac":"","Vehicle_No":"GA 07 G 7100-MRG(WATER BOUSER)","Door1":"--","elock":"--","Door4":"--","Branch":"Fire Station Margao","Vehicletype":"Truck","Door2":"--","Door3":"--","course":"","GPSActualTime":"01-03-2026 11:40:30","Datetime":"01-03-2026 11:40:39","Status":"STOP","DeviceModel":"LC 100","Speed":"0","AC":"--","mnc":"90","Imeino":"863221045426432","gps_hdop":"NA","Odometer":"7301","POI":"At Fire Station Margoa","Driver_Middle_Name":"--","Immobilize_State":"--","IGN":"OFF","satellite_count":0,"Driver_First_Name":"--","Angle":"297","Ibutton/RFID":"","SOS":"--","Fuel":[],"Vin":"--","battery_percentage":"0","ExternalVolt":"--","Driver_Last_Name":"--","Power":"ON","username":"cnt-fire.goa@nic.in","Location":"At Fire Station Margoa","Altitude":"0"}},{"type":"Feature","geometry":{"type":"Point","coordinates":[73.9598633,15.2710333]},"properties":{"Vehicle_Name":"5035","Company":"Directorate of Fire Emergency Services","Temperature":"--","heartbeat":"no","GPS":"ON","mcc":"404","cellid":"NA","lac":"","Vehicle_No":"GA 07 G 1568-MRG(QUICK RESPONSE )","Door1":"--","elock":"--","Door4":"--","Branch":"Fire Station Margao","Vehicletype":"Truck","Door2":"--","Door3":"--","course":"","GPSActualTime":"01-03-2026 11:41:06","Datetime":"01-03-2026 11:41:15","Status":"STOP","DeviceModel":"LC 100","Speed":"0","AC":"--","mnc":"90","Imeino":"863221045426457","gps_hdop":"NA","Odometer":"2351","POI":"1.14 km from Fire Station Margoa","Driver_Middle_Name":"--","Immobilize_State":"--","IGN":"OFF","satellite_count":0,"Driver_First_Name":"--","Angle":"234","Ibutton/RFID":"","SOS":"--","Fuel":[],"Vin":"--","battery_percentage":"0","ExternalVolt":"--","Driver_Last_Name":"--","Power":"ON","username":"cnt-fire.goa@nic.in","Location":"Shop No.20, Nuranys Shopping Centre, Alfonso De Albuquerque Market, New Market, Margao, Goa (SE)","Altitude":"0"}},{"type":"Feature","geometry":{"type":"Point","coordinates":[73.9700433,15.2697383]},"properties":{"Vehicle_Name":"5035","Company":"Directorate of Fire Emergency Services","Temperature":"--","heartbeat":"no","GPS":"ON","mcc":"404","cellid":"NA","lac":"","Vehicle_No":"GA 07 G 6101-MRG(WATER TENDER)","Door1":"--","elock":"--","Door4":"--","Branch":"Fire Station Margao","Vehicletype":"Truck","Door2":"--","Door3":"--","course":"","GPSActualTime":"01-03-2026 11:40:23","Datetime":"01-03-2026 11:40:56","Status":"STOP","DeviceModel":"LC 100","Speed":"0","AC":"--","mnc":"90","Imeino":"868805061625763","gps_hdop":"NA","Odometer":"20283","POI":"At Fire Station Margoa","Driver_Middle_Name":"--","Immobilize_State":"--","IGN":"OFF","satellite_count":0,"Driver_First_Name":"--","Angle":"327","Ibutton/RFID":"","SOS":"--","Fuel":[],"Vin":"--","battery_percentage":"0","ExternalVolt":"--","Driver_Last_Name":"--","Power":"ON","username":"cnt-fire.goa@nic.in","Location":"At Fire Station Margoa","Altitude":"0"}},{"type":"Feature","geometry":{"type":"Point","coordinates":[73.9696866,15.2696566]},"properties":{"Vehicle_Name":"5035","Company":"Directorate of Fire Emergency Services","Temperature":"--","heartbeat":"no","GPS":"ON","mcc":"404","cellid":"NA","lac":"","Vehicle_No":"GA 07 G 1001-MRG(AERIAL LADDER PLATFORM)","Door1":"--","elock":"--","Door4":"--","Branch":"Fire Station Margao","Vehicletype":"Truck","Door2":"--","Door3":"--","course":"","GPSActualTime":"01-03-2026 11:40:43","Datetime":"01-03-2026 11:41:18","Status":"STOP","DeviceModel":"LC 100","Speed":"0","AC":"--","mnc":"90","Imeino":"863221045426671","gps_hdop":"NA","Odometer":"3222","POI":"At Fire Station Margoa","Driver_Middle_Name":"--","Immobilize_State":"--","IGN":"OFF","satellite_count":0,"Driver_First_Name":"--","Angle":"0","Ibutton/RFID":"","SOS":"--","Fuel":[],"Vin":"--","battery_percentage":"0","ExternalVolt":"--","Driver_Last_Name":"--","Power":"ON","username":"cnt-fire.goa@nic.in","Location":"At Fire Station Margoa","Altitude":"0"}},{"type":"Feature","geometry":{"type":"Point","coordinates":[74.0029856,15.4027461]},"properties":{"Vehicle_Name":"5026","Company":"Directorate of Fire Emergency Services","Temperature":"--","heartbeat":"yes","GPS":"ON","mcc":"404","cellid":"NA","lac":"","Vehicle_No":"GA 07 G 0820-BIC(WATER TEDNER)","Door1":"--","elock":"--","Door4":"--","Branch":"Fire Station Bicholim","Vehicletype":"Truck","Door2":"--","Door3":"--","course":"","GPSActualTime":"01-03-2026 11:39:22","Datetime":"01-03-2026 11:39:22","Status":"STOP","DeviceModel":"JM01","Speed":"0","AC":"--","mnc":"90","Imeino":"356218602373126","gps_hdop":"NA","Odometer":"0","POI":"At Fire Station Ponda ","Driver_Middle_Name":"--","Immobilize_State":"--","IGN":"OFF","satellite_count":13,"Driver_First_Name":"--","Angle":"0","Ibutton/RFID":"","SOS":"--","Fuel":[],"Vin":"--","battery_percentage":0,"ExternalVolt":"614.44","Driver_Last_Name":"--","Power":"ON","username":"cnt-fire.goa@nic.in","Location":"At Fire Station Ponda ","Altitude":"0"}},{"type":"Feature","geometry":{"type":"Point","coordinates":[73.9140633,15.5002683]},"properties":{"Vehicle_Name":"5035","Company":"Directorate of Fire Emergency Services","Temperature":"--","heartbeat":"no","GPS":"ON","mcc":"404","cellid":"NA","lac":"","Vehicle_No":"GA 07 G 5101-OLG(MS WATER TENDER)","Door1":"--","elock":"--","Door4":"--","Branch":"Fire Station Old Goa","Vehicletype":"Truck","Door2":"--","Door3":"--","course":"","GPSActualTime":"01-03-2026 11:40:02","Datetime":"01-03-2026 11:40:11","Status":"STOP","DeviceModel":"LC 100","Speed":"0","AC":"--","mnc":"90","Imeino":"863221045426754","gps_hdop":"NA","Odometer":"19900","POI":"At Fire Station Old Goa","Driver_Middle_Name":"--","Immobilize_State":"--","IGN":"OFF","satellite_count":0,"Driver_First_Name":"--","Angle":"0","Ibutton/RFID":"","SOS":"--","Fuel":[],"Vin":"--","battery_percentage":"0","ExternalVolt":"--","Driver_Last_Name":"--","Power":"ON","username":"cnt-fire.goa@nic.in","Location":"At Fire Station Old Goa","Altitude":"0"}},{"type":"Feature","geometry":{"type":"Point","coordinates":[73.9465816,15.5895633]},"properties":{"Vehicle_Name":"5035","Company":"Directorate of Fire Emergency Services","Temperature":"--","heartbeat":"no","GPS":"OFF","mcc":"404","cellid":"NA","lac":"","Vehicle_No":"GA 07 G 3101-BIC(MS WATER TENDER)","Door1":"--","elock":"--","Door4":"--","Branch":"Fire Station Bicholim","Vehicletype":"Truck","Door2":"--","Door3":"--","course":"","GPSActualTime":"01-03-2026 11:39:51","Datetime":"01-03-2026 11:39:56","Status":"STOP","DeviceModel":"LC 100","Speed":"0","AC":"--","mnc":"90","Imeino":"863221045373543","gps_hdop":"NA","Odometer":"38628","POI":"At Fire Station Bicholim ","Driver_Middle_Name":"--","Immobilize_State":"--","IGN":"OFF","satellite_count":0,"Driver_First_Name":"--","Angle":"354","Ibutton/RFID":"","SOS":"--","Fuel":[],"Vin":"--","battery_percentage":"0","ExternalVolt":"--","Driver_Last_Name":"--","Power":"ON","username":"cnt-fire.goa@nic.in","Location":"At Fire Station Bicholim ","Altitude":"0"}},{"type":"Feature","geometry":{"type":"Point","coordinates":[73.9467283,15.5893983]},"properties":{"Vehicle_Name":"5035","Company":"Directorate of Fire Emergency Services","Temperature":"--","heartbeat":"no","GPS":"ON","mcc":"404","cellid":"NA","lac":"","Vehicle_No":"GA 07 G 1941-BIC(QUICK RESPONSE)","Door1":"--","elock":"--","Door4":"--","Branch":"Fire Station Bicholim","Vehicletype":"Truck","Door2":"--","Door3":"--","course":"","GPSActualTime":"01-03-2026 11:40:59","Datetime":"01-03-2026 11:41:08","Status":"STOP","DeviceModel":"LC 100","Speed":"0","AC":"--","mnc":"90","Imeino":"868805061620004","gps_hdop":"NA","Odometer":"26876","POI":"At Fire Station Bicholim ","Driver_Middle_Name":"--","Immobilize_State":"--","IGN":"OFF","satellite_count":0,"Driver_First_Name":"--","Angle":"294","Ibutton/RFID":"","SOS":"--","Fuel":[],"Vin":"--","battery_percentage":"0","ExternalVolt":"--","Driver_Last_Name":"--","Power":"ON","username":"cnt-fire.goa@nic.in","Location":"At Fire Station Bicholim ","Altitude":"0"}},{"type":"Feature","geometry":{"type":"Point","coordinates":[73.8490316,15.39059]},"properties":{"Vehicle_Name":"5035","Company":"Directorate of Fire Emergency Services","Temperature":"--","heartbeat":"no","GPS":"ON","mcc":"404","cellid":"NA","lac":"","Vehicle_No":"GA 07 G 2319-VAS (EMERGENCY RESCUE TENDER)","Door1":"--","elock":"--","Door4":"--","Branch":"Fire Station Vasco","Vehicletype":"Truck","Door2":"--","Door3":"--","course":"","GPSActualTime":"01-03-2026 11:40:12","Datetime":"01-03-2026 11:40:24","Status":"STOP","DeviceModel":"LC 100","Speed":"0","AC":"--","mnc":"90","Imeino":"863221045426127","gps_hdop":"NA","Odometer":"4525","POI":"0.31 km from Fire Station Vasco","Driver_Middle_Name":"--","Immobilize_State":"--","IGN":"OFF","satellite_count":0,"Driver_First_Name":"--","Angle":"270","Ibutton/RFID":"","SOS":"--","Fuel":[],"Vin":"--","battery_percentage":"0","ExternalVolt":"--","Driver_Last_Name":"--","Power":"ON","username":"cnt-fire.goa@nic.in","Location":"Delhi Junction Restaurant, OPP. VISHAL MEGA MART, Dabolim, Goa (NW)","Altitude":"0"}},{"type":"Feature","geometry":{"type":"Point","coordinates":[74.1259683,15.52618]},"properties":{"Vehicle_Name":"5035","Company":"Directorate of Fire Emergency Services","Temperature":"--","heartbeat":"no","GPS":"ON","mcc":"404","cellid":"NA","lac":"","Vehicle_No":"GA 07 G 3737-VAP(WATER TENDER)","Door1":"--","elock":"--","Door4":"--","Branch":"Fire Station Valpoi","Vehicletype":"Truck","Door2":"--","Door3":"--","course":"","GPSActualTime":"01-03-2026 11:40:18","Datetime":"01-03-2026 11:40:26","Status":"STOP","DeviceModel":"LC 100","Speed":"0","AC":"--","mnc":"90","Imeino":"868805061619626","gps_hdop":"NA","Odometer":"24008","POI":"1.45 km from Fire Station Valpoi ","Driver_Middle_Name":"--","Immobilize_State":"--","IGN":"OFF","satellite_count":0,"Driver_First_Name":"--","Angle":"72","Ibutton/RFID":"","SOS":"--","Fuel":[],"Vin":"--","battery_percentage":"0","ExternalVolt":"--","Driver_Last_Name":"--","Power":"ON","username":"cnt-fire.goa@nic.in","Location":"Variety Furniture, NUHA COMPLEX, VALPOI SATTARI, Mapusa, Goa (NE)","Altitude":"0"}},{"type":"Feature","geometry":{"type":"Point","coordinates":[74.0028883,15.4026916]},"properties":{"Vehicle_Name":"5035","Company":"Directorate of Fire Emergency Services","Temperature":"--","heartbeat":"no","GPS":"ON","mcc":"404","cellid":"NA","lac":"","Vehicle_No":"GA 07 G 2318-PND(EMERGENCY RESCUE TENDER)","Door1":"--","elock":"--","Door4":"--","Branch":"Fire Station Ponda","Vehicletype":"Truck","Door2":"--","Door3":"--","course":"","GPSActualTime":"01-03-2026 11:41:00","Datetime":"01-03-2026 11:41:06","Status":"STOP","DeviceModel":"LC 100","Speed":"0","AC":"--","mnc":"90","Imeino":"863221045426390","gps_hdop":"NA","Odometer":"3232","POI":"At Fire Station Ponda ","Driver_Middle_Name":"--","Immobilize_State":"--","IGN":"OFF","satellite_count":0,"Driver_First_Name":"--","Angle":"51","Ibutton/RFID":"","SOS":"--","Fuel":[],"Vin":"--","battery_percentage":"0","ExternalVolt":"--","Driver_Last_Name":"--","Power":"ON","username":"cnt-fire.goa@nic.in","Location":"At Fire Station Ponda ","Altitude":"0"}},{"type":"Feature","geometry":{"type":"Point","coordinates":[74.0028483,15.4026466]},"properties":{"Vehicle_Name":"5035","Company":"Directorate of Fire Emergency Services","Temperature":"--","heartbeat":"no","GPS":"ON","mcc":"404","cellid":"NA","lac":"","Vehicle_No":"GA 07 G 2004-PND(QUICK RESPONSE)","Door1":"--","elock":"--","Door4":"--","Branch":"Fire Station Ponda","Vehicletype":"Truck","Door2":"--","Door3":"--","course":"","GPSActualTime":"01-03-2026 11:40:08","Datetime":"01-03-2026 11:40:15","Status":"STOP","DeviceModel":"LC 100","Speed":"0","AC":"--","mnc":"90","Imeino":"863221045426028","gps_hdop":"NA","Odometer":"24429","POI":"At Fire Station Ponda ","Driver_Middle_Name":"--","Immobilize_State":"--","IGN":"OFF","satellite_count":0,"Driver_First_Name":"--","Angle":"288","Ibutton/RFID":"","SOS":"--","Fuel":[],"Vin":"--","battery_percentage":"0","ExternalVolt":"--","Driver_Last_Name":"--","Power":"ON","username":"cnt-fire.goa@nic.in","Location":"At Fire Station Ponda ","Altitude":"0"}},{"type":"Feature","geometry":{"type":"Point","coordinates":[74.0031899,15.4025733]},"properties":{"Vehicle_Name":"5035","Company":"Directorate of Fire Emergency Services","Temperature":"--","heartbeat":"no","GPS":"OFF","mcc":"404","cellid":"NA","lac":"","Vehicle_No":"GA 07 G 9101-PND(WATER TENDER)","Door1":"--","elock":"--","Door4":"--","Branch":"Fire Station Ponda","Vehicletype":"Truck","Door2":"--","Door3":"--","course":"","GPSActualTime":"01-03-2026 11:41:08","Datetime":"01-03-2026 11:41:16","Status":"STOP","DeviceModel":"LC 100","Speed":"0","AC":"--","mnc":"90","Imeino":"863221045426143","gps_hdop":"NA","Odometer":"19343","POI":"At Fire Station Ponda ","Driver_Middle_Name":"--","Immobilize_State":"--","IGN":"OFF","satellite_count":0,"Driver_First_Name":"--","Angle":"270","Ibutton/RFID":"","SOS":"--","Fuel":[],"Vin":"--","battery_percentage":"0","ExternalVolt":"--","Driver_Last_Name":"--","Power":"ON","username":"cnt-fire.goa@nic.in","Location":"At Fire Station Ponda ","Altitude":"0"}},{"type":"Feature","geometry":{"type":"Point","coordinates":[74.0029383,15.4025516]},"properties":{"Vehicle_Name":"5035","Company":"Directorate of Fire Emergency Services","Temperature":"--","heartbeat":"no","GPS":"ON","mcc":"404","cellid":"NA","lac":"","Vehicle_No":"GA 07 G 9797-PND(WATER BOUSER)","Door1":"--","elock":"--","Door4":"--","Branch":"Fire Station Ponda","Vehicletype":"Truck","Door2":"--","Door3":"--","course":"","GPSActualTime":"01-03-2026 11:40:45","Datetime":"01-03-2026 11:40:53","Status":"STOP","DeviceModel":"LC 100","Speed":"0","AC":"--","mnc":"90","Imeino":"868805061625490","gps_hdop":"NA","Odometer":"11553","POI":"At Fire Station Ponda ","Driver_Middle_Name":"--","Immobilize_State":"--","IGN":"OFF","satellite_count":0,"Driver_First_Name":"--","Angle":"108","Ibutton/RFID":"","SOS":"--","Fuel":[],"Vin":"--","battery_percentage":"0","ExternalVolt":"--","Driver_Last_Name":"--","Power":"ON","username":"cnt-fire.goa@nic.in","Location":"At Fire Station Ponda ","Altitude":"0"}},{"type":"Feature","geometry":{"type":"Point","coordinates":[74.0439533,15.0235533]},"properties":{"Vehicle_Name":"5035","Company":"Directorate of Fire Emergency Services","Temperature":"--","heartbeat":"no","GPS":"ON","mcc":"404","cellid":"NA","lac":"","Vehicle_No":"GA 07 G 6363-CAN(WATER TENDER)","Door1":"--","elock":"--","Door4":"--","Branch":"Fire Station Canacona","Vehicletype":"Truck","Door2":"--","Door3":"--","course":"","GPSActualTime":"01-03-2026 11:05:34","Datetime":"01-03-2026 11:05:43","Status":"STOP","DeviceModel":"LC 100","Speed":"0","AC":"--","mnc":"90","Imeino":"868805061810829","gps_hdop":"NA","Odometer":"26089","POI":"--","Driver_Middle_Name":"--","Immobilize_State":"--","IGN":"OFF","satellite_count":0,"Driver_First_Name":"--","Angle":"0","Ibutton/RFID":"","SOS":"--","Fuel":[],"Vin":"--","battery_percentage":"0","ExternalVolt":"--","Driver_Last_Name":"--","Power":"ON","username":"cnt-fire.goa@nic.in","Location":"Canacona, The Lalitrajbaga ,Canacona, Canacona, Goa (NE)","Altitude":"0"}},{"type":"Feature","geometry":{"type":"Point","coordinates":[74.0440916,15.0236666]},"properties":{"Vehicle_Name":"5035","Company":"Directorate of Fire Emergency Services","Temperature":"--","heartbeat":"no","GPS":"ON","mcc":"404","cellid":"NA","lac":"","Vehicle_No":"GA 07 G 1567-CAN(QUICK RESPONSE FT)","Door1":"--","elock":"--","Door4":"--","Branch":"Fire Station Canacona","Vehicletype":"Truck","Door2":"--","Door3":"--","course":"","GPSActualTime":"28-02-2026 14:24:22","Datetime":"28-02-2026 14:24:38","Status":"INACTIVE","DeviceModel":"LC 100","Speed":"0","AC":"--","mnc":"90","Imeino":"868805061619964","gps_hdop":"NA","Odometer":"16336","POI":"--","Driver_Middle_Name":"--","Immobilize_State":"--","IGN":"OFF","satellite_count":0,"Driver_First_Name":"--","Angle":"0","Ibutton/RFID":"","SOS":"--","Fuel":[],"Vin":"--","battery_percentage":"0","ExternalVolt":"--","Driver_Last_Name":"--","Power":"ON","username":"cnt-fire.goa@nic.in","Location":"Canacona, The Lalitrajbaga ,Canacona, Canacona, Goa (NE)","Altitude":"0"}},{"type":"Feature","geometry":{"type":"Point","coordinates":[73.9356033,15.3695983]},"properties":{"Vehicle_Name":"5035","Company":"Directorate of Fire Emergency Services","Temperature":"--","heartbeat":"no","GPS":"ON","mcc":"404","cellid":"NA","lac":"","Vehicle_No":"GA 07 G 1569-VRN(QUICK RESPONSE)","Door1":"--","elock":"--","Door4":"--","Branch":"Fire Station Verna","Vehicletype":"Truck","Door2":"--","Door3":"--","course":"","GPSActualTime":"01-03-2026 11:40:04","Datetime":"01-03-2026 11:40:26","Status":"STOP","DeviceModel":"LC 100","Speed":"0","AC":"--","mnc":"90","Imeino":"868805061619758","gps_hdop":"NA","Odometer":"22904","POI":"At Fire Station Verna","Driver_Middle_Name":"--","Immobilize_State":"--","IGN":"OFF","satellite_count":0,"Driver_First_Name":"--","Angle":"24","Ibutton/RFID":"","SOS":"--","Fuel":[],"Vin":"--","battery_percentage":"0","ExternalVolt":"--","Driver_Last_Name":"--","Power":"ON","username":"cnt-fire.goa@nic.in","Location":"At Fire Station Verna","Altitude":"0"}},{"type":"Feature","geometry":{"type":"Point","coordinates":[73.9357016,15.3696449]},"properties":{"Vehicle_Name":"5035","Company":"Directorate of Fire Emergency Services","Temperature":"--","heartbeat":"no","GPS":"ON","mcc":"404","cellid":"NA","lac":"","Vehicle_No":"GA 07 G 9909-VRN(ADVANCE MULTI-PURPOSE)","Door1":"--","elock":"--","Door4":"--","Branch":"Fire Station Verna","Vehicletype":"Truck","Door2":"--","Door3":"--","course":"","GPSActualTime":"01-03-2026 11:41:11","Datetime":"01-03-2026 11:41:20","Status":"STOP","DeviceModel":"LC 100","Speed":"0","AC":"--","mnc":"90","Imeino":"863221045372289","gps_hdop":"NA","Odometer":"16475","POI":"At Fire Station Verna","Driver_Middle_Name":"--","Immobilize_State":"--","IGN":"OFF","satellite_count":0,"Driver_First_Name":"--","Angle":"132","Ibutton/RFID":"","SOS":"--","Fuel":[],"Vin":"--","battery_percentage":"0","ExternalVolt":"--","Driver_Last_Name":"--","Power":"ON","username":"cnt-fire.goa@nic.in","Location":"At Fire Station Verna","Altitude":"0"}},{"type":"Feature","geometry":{"type":"Point","coordinates":[74.12605,15.5259833]},"properties":{"Vehicle_Name":"5035","Company":"Directorate of Fire Emergency Services","Temperature":"--","heartbeat":"no","GPS":"ON","mcc":"404","cellid":"NA","lac":"","Vehicle_No":"GA 07 G 1942-VAP(QUICK RESPONSE)","Door1":"--","elock":"--","Door4":"--","Branch":"Fire Station Valpoi","Vehicletype":"Truck","Door2":"--","Door3":"--","course":"","GPSActualTime":"01-03-2026 11:40:25","Datetime":"01-03-2026 11:40:34","Status":"STOP","DeviceModel":"LC 100","Speed":"0","AC":"--","mnc":"90","Imeino":"863221045426697","gps_hdop":"NA","Odometer":"26635","POI":"1.45 km from Fire Station Valpoi ","Driver_Middle_Name":"--","Immobilize_State":"--","IGN":"OFF","satellite_count":0,"Driver_First_Name":"--","Angle":"315","Ibutton/RFID":"","SOS":"--","Fuel":[],"Vin":"--","battery_percentage":"0","ExternalVolt":"--","Driver_Last_Name":"--","Power":"ON","username":"cnt-fire.goa@nic.in","Location":"Variety Furniture, NUHA COMPLEX, VALPOI SATTARI, Mapusa, Goa (SE)","Altitude":"0"}},{"type":"Feature","geometry":{"type":"Point","coordinates":[74.1038416,15.2604566]},"properties":{"Vehicle_Name":"5035","Company":"Directorate of Fire Emergency Services","Temperature":"--","heartbeat":"no","GPS":"ON","mcc":"404","cellid":"NA","lac":"","Vehicle_No":"GA 07 G 2003-CUR(QUICK RESPONSE)","Door1":"--","elock":"--","Door4":"--","Branch":"Fire Station Curchorem","Vehicletype":"Truck","Door2":"--","Door3":"--","course":"","GPSActualTime":"01-03-2026 11:40:34","Datetime":"01-03-2026 11:40:45","Status":"STOP","DeviceModel":"LC 100","Speed":"0","AC":"--","mnc":"90","Imeino":"863221045426655","gps_hdop":"NA","Odometer":"27662","POI":"At Fire Station Curchorem","Driver_Middle_Name":"--","Immobilize_State":"--","IGN":"OFF","satellite_count":0,"Driver_First_Name":"--","Angle":"0","Ibutton/RFID":"","SOS":"--","Fuel":[],"Vin":"--","battery_percentage":"0","ExternalVolt":"--","Driver_Last_Name":"--","Power":"ON","username":"cnt-fire.goa@nic.in","Location":"At Fire Station Curchorem","Altitude":"0"}},{"type":"Feature","geometry":{"type":"Point","coordinates":[74.103825,15.2602933]},"properties":{"Vehicle_Name":"5035","Company":"Directorate of Fire Emergency Services","Temperature":"--","heartbeat":"no","GPS":"ON","mcc":"404","cellid":"NA","lac":"","Vehicle_No":"GA 07 G 7447-CUR(EMERGENCY RESCUE)","Door1":"--","elock":"--","Door4":"--","Branch":"Fire Station Curchorem","Vehicletype":"Truck","Door2":"--","Door3":"--","course":"","GPSActualTime":"01-03-2026 11:41:08","Datetime":"01-03-2026 11:41:14","Status":"STOP","DeviceModel":"LC 100","Speed":"0","AC":"--","mnc":"90","Imeino":"868805061625177","gps_hdop":"NA","Odometer":"20281","POI":"At Fire Station Curchorem","Driver_Middle_Name":"--","Immobilize_State":"--","IGN":"OFF","satellite_count":0,"Driver_First_Name":"--","Angle":"285","Ibutton/RFID":"","SOS":"--","Fuel":[],"Vin":"--","battery_percentage":"0","ExternalVolt":"--","Driver_Last_Name":"--","Power":"ON","username":"cnt-fire.goa@nic.in","Location":"At Fire Station Curchorem","Altitude":"0"}},{"type":"Feature","geometry":{"type":"Point","coordinates":[74.1063966,15.25036]},"properties":{"Vehicle_Name":"5035","Company":"Directorate of Fire Emergency Services","Temperature":"--","heartbeat":"no","GPS":"ON","mcc":"404","cellid":"NA","lac":"","Vehicle_No":"GA 07 G 7557-CUR(WATER TENDER)","Door1":"--","elock":"--","Door4":"--","Branch":"Fire Station Curchorem","Vehicletype":"Truck","Door2":"--","Door3":"--","course":"","GPSActualTime":"01-03-2026 11:40:56","Datetime":"01-03-2026 11:41:07","Status":"STOP","DeviceModel":"LC 100","Speed":"0","AC":"--","mnc":"90","Imeino":"863221045426630","gps_hdop":"NA","Odometer":"11314","POI":"1.14 km from Fire Station Curchorem","Driver_Middle_Name":"--","Immobilize_State":"--","IGN":"OFF","satellite_count":0,"Driver_First_Name":"--","Angle":"108","Ibutton/RFID":"","SOS":"--","Fuel":[],"Vin":"--","battery_percentage":"0","ExternalVolt":"--","Driver_Last_Name":"--","Power":"ON","username":"cnt-fire.goa@nic.in","Location":"Betal Temple, Kakoda, Vodlemol Cacora, Goa (NW)","Altitude":"0"}},{"type":"Feature","geometry":{"type":"Point","coordinates":[74.1033533,15.2602483]},"properties":{"Vehicle_Name":"5035","Company":"Directorate of Fire Emergency Services","Temperature":"--","heartbeat":"no","GPS":"ON","mcc":"404","cellid":"NA","lac":"","Vehicle_No":"GA 07 G 7667-CUR(WATER BOUSER)","Door1":"--","elock":"--","Door4":"--","Branch":"Fire Station Curchorem","Vehicletype":"Truck","Door2":"--","Door3":"--","course":"","GPSActualTime":"01-03-2026 11:41:09","Datetime":"01-03-2026 11:41:15","Status":"STOP","DeviceModel":"LC 100","Speed":"0","AC":"--","mnc":"90","Imeino":"863221045431614","gps_hdop":"NA","Odometer":"8125","POI":"At Fire Station Curchorem","Driver_Middle_Name":"--","Immobilize_State":"--","IGN":"OFF","satellite_count":0,"Driver_First_Name":"--","Angle":"87","Ibutton/RFID":"","SOS":"--","Fuel":[],"Vin":"--","battery_percentage":"0","ExternalVolt":"--","Driver_Last_Name":"--","Power":"ON","username":"cnt-fire.goa@nic.in","Location":"At Fire Station Curchorem","Altitude":"0"}},{"type":"Feature","geometry":{"type":"Point","coordinates":[73.9725017,15.4631633]},"properties":{"Vehicle_Name":"G-100","Company":"Directorate of Fire Emergency Services","Temperature":"--","heartbeat":"no","GPS":"ON","mcc":"404","cellid":"NA","lac":"","Vehicle_No":"GA 07 G 4989-KUN(WATER TENDER)","Door1":"--","elock":"--","Door4":"--","Branch":"Fire Station Kundaim","Vehicletype":"Truck","Door2":"--","Door3":"--","course":"","GPSActualTime":"01-03-2026 11:40:21","Datetime":"01-03-2026 11:40:27","Status":"STOP","DeviceModel":"G100","Speed":"0","AC":"--","mnc":"90","Imeino":"869604066433078","gps_hdop":"NA","Odometer":"27056","POI":"At Fire Station Kundaim","Driver_Middle_Name":"--","Immobilize_State":"--","IGN":"OFF","satellite_count":0,"Driver_First_Name":"--","Angle":"297","Ibutton/RFID":"","SOS":"--","Fuel":[],"Vin":"--","battery_percentage":"0","ExternalVolt":"--","Driver_Last_Name":"--","Power":"ON","username":"cnt-fire.goa@nic.in","Location":"At Fire Station Kundaim","Altitude":"0"}},{"type":"Feature","geometry":{"type":"Point","coordinates":[73.7939628,15.532975]},"properties":{"Vehicle_Name":"5026","Company":"Directorate of Fire Emergency Services","Temperature":"--","heartbeat":"yes","GPS":"ON","mcc":"404","cellid":"NA","lac":"","Vehicle_No":"GA 07 G 2242-PIL(WATER TENDER)","Door1":"--","elock":"--","Door4":"--","Branch":"Fire Station Pilerne","Vehicletype":"ECOMET","Door2":"--","Door3":"--","course":"","GPSActualTime":"01-03-2026 11:40:35","Datetime":"01-03-2026 11:40:36","Status":"STOP","DeviceModel":"JM01","Speed":"0","AC":"--","mnc":"90","Imeino":"356218602322768","gps_hdop":"NA","Odometer":"0","POI":"At Fire Station Pilerne","Driver_Middle_Name":"--","Immobilize_State":"--","IGN":"OFF","satellite_count":15,"Driver_First_Name":"--","Angle":"294","Ibutton/RFID":"","SOS":"--","Fuel":[],"Vin":"--","battery_percentage":0,"ExternalVolt":"614.43","Driver_Last_Name":"--","Power":"ON","username":"cnt-fire.goa@nic.in","Location":"At Fire Station Pilerne","Altitude":"0"}},{"type":"Feature","geometry":{"type":"Point","coordinates":[73.8087,15.5898117]},"properties":{"Vehicle_Name":"AT 5036A-4G","Company":"Directorate of Fire Emergency Services","Temperature":"--","heartbeat":"no","GPS":"ON","mcc":"404","cellid":"NA","lac":"","Vehicle_No":"GA 07 G 0681-MAP(QUICK RESPONSE)","Door1":"--","elock":"--","Door4":"--","Branch":"Fire Station Pilerne","Vehicletype":"ASU","Door2":"--","Door3":"--","course":"","GPSActualTime":"01-03-2026 11:41:14","Datetime":"01-03-2026 11:41:20","Status":"STOP","DeviceModel":"L400","Speed":"0","AC":"ON","mnc":"90","Imeino":"862211072172687","gps_hdop":"NA","Odometer":"9315","POI":"At Fire Station Mapusa","Driver_Middle_Name":"--","Immobilize_State":"On","IGN":"OFF","satellite_count":0,"Driver_First_Name":"--","Angle":"0","Ibutton/RFID":"","SOS":"--","Fuel":[],"Vin":"--","battery_percentage":"0","ExternalVolt":"--","Driver_Last_Name":"--","Power":"ON","username":"cnt-fire.goa@nic.in","Location":"At Fire Station Mapusa","Altitude":"0"}},{"type":"Feature","geometry":{"type":"Point","coordinates":[73.7975017,15.7164167]},"properties":{"Vehicle_Name":"AT5032-4G","Company":"Directorate of Fire Emergency Services","Temperature":"--","heartbeat":"yes","GPS":"ON","mcc":"404","cellid":"NA","lac":"","Vehicle_No":"GA 07 G 2101-PER(MS WATER TENDER)","Door1":"--","elock":"--","Door4":"--","Branch":"Fire Station Pernem","Vehicletype":"ASU","Door2":"--","Door3":"--","course":"","GPSActualTime":"01-03-2026 11:39:12","Datetime":"01-03-2026 11:39:13","Status":"STOP","DeviceModel":"N01H","Speed":"0","AC":"--","mnc":"22","Imeino":"357803370980423","gps_hdop":"NA","Odometer":"5743","POI":"At Fire Station Pernem","Driver_Middle_Name":"--","Immobilize_State":"--","IGN":"OFF","satellite_count":15,"Driver_First_Name":"--","Angle":"281","Ibutton/RFID":"","SOS":"--","Fuel":[],"Vin":"--","battery_percentage":100,"ExternalVolt":"--","Driver_Last_Name":"--","Power":"ON","username":"cnt-fire.goa@nic.in","Location":"At Fire Station Pernem","Altitude":"0"}},{"type":"Feature","geometry":{"type":"Point","coordinates":[73.7975439,15.7165517]},"properties":{"Vehicle_Name":"AT 5032-4G","Company":"Directorate of Fire Emergency Services","Temperature":"--","heartbeat":"yes","GPS":"ON","mcc":"404","cellid":"NA","lac":"","Vehicle_No":"GA 07 G 4600-PER(MINI RESCUE TENDER)","Door1":"--","elock":"--","Door4":"--","Branch":"Fire Station Pernem","Vehicletype":"Truck","Door2":"--","Door3":"--","course":"","GPSActualTime":"01-03-2026 11:38:24","Datetime":"01-03-2026 11:38:24","Status":"STOP","DeviceModel":"N01H","Speed":"0","AC":"--","mnc":"22","Imeino":"357803370980464","gps_hdop":"NA","Odometer":"6135","POI":"At Fire Station Pernem","Driver_Middle_Name":"--","Immobilize_State":"--","IGN":"OFF","satellite_count":15,"Driver_First_Name":"--","Angle":"325","Ibutton/RFID":"","SOS":"--","Fuel":[],"Vin":"--","battery_percentage":100,"ExternalVolt":"--","Driver_Last_Name":"--","Power":"ON","username":"cnt-fire.goa@nic.in","Location":"At Fire Station Pernem","Altitude":"0"}},{"type":"Feature","geometry":{"type":"Point","coordinates":[73.8174767,15.487085]},"properties":{"Vehicle_Name":"AT-5032-4G","Company":"Directorate of Fire Emergency Services","Temperature":"--","heartbeat":"no","GPS":"ON","mcc":"404","cellid":"NA","lac":"","Vehicle_No":"GA 07 G 7272-PNJ(WATER TENDER)","Door1":"--","elock":"--","Door4":"--","Branch":"Fire Station Panaji","Vehicletype":"ASU","Door2":"--","Door3":"--","course":"","GPSActualTime":"01-03-2026 11:40:31","Datetime":"01-03-2026 11:40:32","Status":"STOP","DeviceModel":"N01H","Speed":"0","AC":"--","mnc":"90","Imeino":"357803370980415","gps_hdop":"NA","Odometer":"0","POI":"0.28 km from Fire Station panaji","Driver_Middle_Name":"--","Immobilize_State":"--","IGN":"OFF","satellite_count":8,"Driver_First_Name":"--","Angle":"45","Ibutton/RFID":"","SOS":"--","Fuel":[],"Vin":"--","battery_percentage":100,"ExternalVolt":"--","Driver_Last_Name":"--","Power":"ON","username":"cnt-fire.goa@nic.in","Location":"Caculo Mall, 16 Shanta, St Inez Rd, Caculo Enclave, Santa Inez, Panaji, Goa (NW)","Altitude":"0"}},{"type":"Feature","geometry":{"type":"Point","coordinates":[74.021045,15.1861889]},"properties":{"Vehicle_Name":"AT 5032-4G","Company":"Directorate of Fire Emergency Services","Temperature":"--","heartbeat":"yes","GPS":"ON","mcc":"404","cellid":"NA","lac":"","Vehicle_No":"GA07G2384-CAN(WATER TENDER)","Door1":"--","elock":"--","Door4":"--","Branch":"Fire Station Cuncolim","Vehicletype":"ASU","Door2":"--","Door3":"--","course":"","GPSActualTime":"01-03-2026 11:39:57","Datetime":"01-03-2026 11:39:57","Status":"STOP","DeviceModel":"N01H","Speed":"0","AC":"--","mnc":"90","Imeino":"869671070072341","gps_hdop":"NA","Odometer":"5544138","POI":"At Fire Station Cuncolim","Driver_Middle_Name":"--","Immobilize_State":"--","IGN":"OFF","satellite_count":15,"Driver_First_Name":"--","Angle":"223","Ibutton/RFID":"","SOS":"--","Fuel":[],"Vin":"--","battery_percentage":100,"ExternalVolt":"--","Driver_Last_Name":"--","Power":"ON","username":"cnt-fire.goa@nic.in","Location":"At Fire Station Cuncolim","Altitude":"0"}},{"type":"Feature","geometry":{"type":"Point","coordinates":[73.7975917,15.7164067]},"properties":{"Vehicle_Name":"5035","Company":"Directorate of Fire Emergency Services","Temperature":"--","heartbeat":"no","GPS":"ON","mcc":"--","cellid":"NA","lac":"","Vehicle_No":"GA07G2507 - PER Mid Size (Water Tender)","Door1":"--","elock":"--","Door4":"--","Branch":"Fire Station Pernem","Vehicletype":"ASU","Door2":"--","Door3":"--","course":"","GPSActualTime":"01-03-2026 11:40:38","Datetime":"01-03-2026 11:40:48","Status":"STOP","DeviceModel":"LC 100","Speed":"0","AC":"--","mnc":"--","Imeino":"868805061619535","gps_hdop":"NA","Odometer":"2518000","POI":"At Fire Station Pernem","Driver_Middle_Name":"--","Immobilize_State":"--","IGN":"OFF","satellite_count":0,"Driver_First_Name":"--","Angle":"117","Ibutton/RFID":"","SOS":"--","Fuel":[],"Vin":"--","battery_percentage":100,"ExternalVolt":"--","Driver_Last_Name":"--","Power":"ON","username":"cnt-fire.goa@nic.in","Location":"At Fire Station Pernem","Altitude":"0"}},{"type":"Feature","geometry":{"type":"Point","coordinates":[74.1261067,15.52606]},"properties":{"Vehicle_Name":"5035","Company":"Directorate of Fire Emergency Services","Temperature":"--","heartbeat":"no","GPS":"ON","mcc":"--","cellid":"NA","lac":"","Vehicle_No":"GA07G2505 - VAP Mid Size (Water Tender)","Door1":"--","elock":"--","Door4":"--","Branch":"Fire Station Valpoi","Vehicletype":"ASU","Door2":"--","Door3":"--","course":"","GPSActualTime":"01-03-2026 11:40:41","Datetime":"01-03-2026 11:40:48","Status":"STOP","DeviceModel":"LC 100","Speed":"0","AC":"--","mnc":"--","Imeino":"863221045358098","gps_hdop":"NA","Odometer":"1204000","POI":"1.44 km from Fire Station Valpoi ","Driver_Middle_Name":"--","Immobilize_State":"--","IGN":"OFF","satellite_count":0,"Driver_First_Name":"--","Angle":"126","Ibutton/RFID":"","SOS":"--","Fuel":[],"Vin":"--","battery_percentage":85,"ExternalVolt":"--","Driver_Last_Name":"--","Power":"ON","username":"cnt-fire.goa@nic.in","Location":"Variety Furniture, NUHA COMPLEX, VALPOI SATTARI, Mapusa, Goa (NE)","Altitude":"0"}},{"type":"Feature","geometry":{"type":"Point","coordinates":[73.9465733,15.58913]},"properties":{"Vehicle_Name":"5035","Company":"Directorate of Fire Emergency Services","Temperature":"--","heartbeat":"no","GPS":"ON","mcc":"--","cellid":"NA","lac":"","Vehicle_No":"GA07G2504 - BIC Mid Size (Water Tender)","Door1":"--","elock":"--","Door4":"--","Branch":"Fire Station Bicholim","Vehicletype":"ASU","Door2":"--","Door3":"--","course":"","GPSActualTime":"01-03-2026 11:40:45","Datetime":"01-03-2026 11:40:52","Status":"STOP","DeviceModel":"LC 100","Speed":"0","AC":"--","mnc":"--","Imeino":"863221045367446","gps_hdop":"NA","Odometer":"2873000","POI":"At Fire Station Bicholim ","Driver_Middle_Name":"--","Immobilize_State":"--","IGN":"OFF","satellite_count":0,"Driver_First_Name":"--","Angle":"210","Ibutton/RFID":"","SOS":"--","Fuel":[],"Vin":"--","battery_percentage":85,"ExternalVolt":"--","Driver_Last_Name":"--","Power":"ON","username":"cnt-fire.goa@nic.in","Location":"At Fire Station Bicholim ","Altitude":"0"}},{"type":"Feature","geometry":{"type":"Point","coordinates":[73.808715,15.5898817]},"properties":{"Vehicle_Name":"5035","Company":"Directorate of Fire Emergency Services","Temperature":"--","heartbeat":"no","GPS":"ON","mcc":"--","cellid":"NA","lac":"","Vehicle_No":"GA07G2503- MAP Mid Size (Water Tender)","Door1":"--","elock":"--","Door4":"--","Branch":"Fire Station Mapusa","Vehicletype":"ASU","Door2":"--","Door3":"--","course":"","GPSActualTime":"01-03-2026 11:40:22","Datetime":"01-03-2026 11:40:30","Status":"STOP","DeviceModel":"LC 100","Speed":"0","AC":"--","mnc":"--","Imeino":"868805061625318","gps_hdop":"NA","Odometer":"2793000","POI":"At Fire Station Mapusa","Driver_Middle_Name":"--","Immobilize_State":"--","IGN":"OFF","satellite_count":0,"Driver_First_Name":"--","Angle":"69","Ibutton/RFID":"","SOS":"--","Fuel":[],"Vin":"--","battery_percentage":100,"ExternalVolt":"--","Driver_Last_Name":"--","Power":"ON","username":"cnt-fire.goa@nic.in","Location":"At Fire Station Mapusa","Altitude":"0"}},{"type":"Feature","geometry":{"type":"Point","coordinates":[73.817025,15.4871667]},"properties":{"Vehicle_Name":"5035","Company":"Directorate of Fire Emergency Services","Temperature":"--","heartbeat":"no","GPS":"ON","mcc":"--","cellid":"NA","lac":"","Vehicle_No":"GA07G2502 - FFHQ Mid Size (Water Tender)","Door1":"--","elock":"--","Door4":"--","Branch":"Fire Force Headquarters","Vehicletype":"ASU","Door2":"--","Door3":"--","course":"","GPSActualTime":"01-03-2026 11:40:19","Datetime":"01-03-2026 11:40:26","Status":"STOP","DeviceModel":"LC 100","Speed":"0","AC":"--","mnc":"--","Imeino":"868805061619741","gps_hdop":"NA","Odometer":"1801000","POI":"0.28 km from Fire Station panaji","Driver_Middle_Name":"--","Immobilize_State":"--","IGN":"--","satellite_count":0,"Driver_First_Name":"--","Angle":"141","Ibutton/RFID":"","SOS":"--","Fuel":[],"Vin":"--","battery_percentage":100,"ExternalVolt":"--","Driver_Last_Name":"--","Power":"ON","username":"cnt-fire.goa@nic.in","Location":"Goa College of Home Science, Dayanand Bandodkar Road, Opposite Parade Ground Campal,, Panaji, Goa (SW)","Altitude":"0"}}]}